NORAD_CAT_ID,OBJECT_NAME,OBJECT_TYPE,EPOCH,MEAN_MOTION,ECCENTRICITY,INCLINATION,RA_OF_ASC_NODE,ARG_OF_PERICENTER,MEAN_ANOMALY,BSTAR,MEAN_MOTION_DOT,MEAN_MOTION_DDOT,TLE_LINE0,TLE_LINE1,TLE_LINE2,SEMIMAJOR_AXIS,PERIOD,APOGEE,PERIGEE,DECAYED
53541.0,STARLINK-4485,PAYLOAD,2024-06-03 04:49:34,15.08833309,0.0001562,53.2173,87.3425,98.5035,261.6134,0.00019833,2.869e-05,0.0,0 STARLINK-4485,1 53541U 22101Q   24155.20109299  .00002869  00000-0  19833-3 0  9995,2 53541  53.2173  87.3425 0001562  98.5035 261.6134 15.08833309 98879,6917.901,95.438,540.846,538.685,0.0
53541.0,STARLINK-4485,PAYLOAD,2024-06-03 12:46:29,15.08845471,0.0001485,53.2195,85.8542,81.5148,278.6013,-2.6362e-05,-7.08e-06,0.0,0 STARLINK-4485,1 53541U 22101Q   24155.53229125 -.00000708  00000-0 -26362-4 0  9990,2 53541  53.2195  85.8542 0001485  81.5148 278.6013 15.08845471 99617,6917.864,95.437,540.756,538.701,0.0
53541.0,STARLINK-4485,PAYLOAD,2024-06-03 19:08:02,15.08838291,0.0001454,53.2175,84.6658,88.7395,271.3764,6.7779e-05,7.91e-06,0.0,0 STARLINK-4485,1 53541U 22101Q   24155.79725458  .00000791  00000-0  67779-4 0  9995,2 53541  53.2175  84.6658 0001454  88.7395 271.3764 15.08838291 99658,6917.886,95.438,540.756,538.745,0.0
53541.0,STARLINK-4485,PAYLOAD,2024-06-04 04:40:20,15.08850244,0.0001534,53.2165,82.8824,86.8731,273.2436,0.00010453,1.376e-05,0.0,0 STARLINK-4485,1 53541U 22101Q   24156.19468560  .00001376  00000-0  10453-3 0  9994,2 53541  53.2165  82.8824 0001534  86.8731 273.2436 15.08850244 99024,6917.849,95.437,540.775,538.653,0.0
53541.0,STARLINK-4485,PAYLOAD,2024-06-04 12:37:16,15.08844598,0.0001657,53.218,81.3952,93.0481,267.0701,4.0123e-05,3.51e-06,0.0,0 STARLINK-4485,1 53541U 22101Q   24156.52588999  .00000351  00000-0  40123-4 0  9990,2 53541  53.2180  81.3952 0001657  93.0481 267.0701 15.08844598 99767,6917.866,95.437,540.878,538.585,0.0
53541.0,STARLINK-4485,PAYLOAD,2024-06-05 04:31:07,15.08851087,0.0001491,53.2185,78.4197,104.2101,255.9057,5.9208e-05,6.55e-06,0.0,0 STARLINK-4485,1 53541U 22101Q   24157.18828201  .00000655  00000-0  59208-4 0  9997,2 53541  53.2185  78.4197 0001491 104.2101 255.9057 15.08851087 99862,6917.847,95.437,540.743,538.68,0.0
53541.0,STARLINK-4485,PAYLOAD,2024-06-06 01:11:09,15.08836718,0.0001845,53.2158,74.5557,91.1765,268.9438,-2.0449e-05,-6.14e-06,0.0,0 STARLINK-4485,1 53541U 22101Q   24158.04941618 -.00000614  00000-0 -20449-4 0  9993,2 53541  53.2158  74.5557 0001845  91.1765 268.9438 15.08836718 99302,6917.89,95.438,541.032,538.479,0.0
53541.0,STARLINK-4485,PAYLOAD,2024-06-07 16:55:48,15.08834341,0.000176,53.2155,67.1228,82.861,277.2582,0.00013018,1.784e-05,0.0,0 STARLINK-4485,1 53541U 22101Q   24159.70541784  .00001784  00000-0  13018-3 0  9997,2 53541  53.2155  67.1228 0001760  82.8610 277.2582 15.08834341 99554,6917.898,95.438,540.98,538.545,0.0
53541.0,STARLINK-4485,PAYLOAD,2024-06-07 21:41:57,15.0883588,0.0001748,53.2172,66.2304,87.3404,272.7788,4.2846e-05,3.94e-06,0.0,0 STARLINK-4485,1 53541U 22101Q   24159.90414034  .00000394  00000-0  42846-4 0  9994,2 53541  53.2172  66.2304 0001748  87.3404 272.7788 15.08835880100274,6917.893,95.438,540.967,538.549,0.0
53541.0,STARLINK-4485,PAYLOAD,2024-06-08 04:03:29,15.0884737,0.0001309,53.2183,65.0407,81.1393,278.9747,0.00014734,2.058e-05,0.0,0 STARLINK-4485,1 53541U 22101Q   24160.16909047  .00002058  00000-0  14734-3 0  9990,2 53541  53.2183  65.0407 0001309  81.1393 278.9747 15.08847370 99625,6917.858,95.437,540.628,538.817,0.0
53541.0,STARLINK-4485,PAYLOAD,2024-06-08 10:25:02,15.08835307,0.0001552,53.2177,63.8497,83.5465,276.5704,3.9339e-05,3.38e-06,0.0,0 STARLINK-4485,1 53541U 22101Q   24160.43406213  .00000338  00000-0  39339-4 0  9995,2 53541  53.2177  63.8497 0001552  83.5465 276.5704 15.08835307100356,6917.895,95.438,540.833,538.686,0.0
53541.0,STARLINK-4485,PAYLOAD,2024-06-08 21:32:44,15.08840822,0.0001314,53.2179,61.7685,92.1201,267.9941,-2.1434e-05,-6.29e-06,0.0,0 STARLINK-4485,1 53541U 22101Q   24160.89774103 -.00000629  00000-0 -21434-4 0  9993,2 53541  53.2179  61.7685 0001314  92.1201 267.9941 15.08840822 99738,6917.878,95.438,540.652,538.834,0.0
53541.0,STARLINK-4485,PAYLOAD,2024-06-09 02:18:53,15.08847089,0.0001432,53.217,60.8801,104.1554,255.9597,8.7177e-05,1.1e-05,0.0,0 STARLINK-4485,1 53541U 22101Q   24161.09645353  .00001100  00000-0  87177-4 0  9999,2 53541  53.2170  60.8801 0001432 104.1554 255.9597 15.08847089 99764,6917.859,95.437,540.714,538.733,0.0
53541.0,STARLINK-4485,PAYLOAD,2024-06-09 21:23:32,15.08833066,0.0001352,53.2175,57.3126,97.8775,262.2371,5.0578e-05,5.17e-06,0.0,0 STARLINK-4485,1 53541U 22101Q   24161.89134363  .00000517  00000-0  50578-4 0  9997,2 53541  53.2175  57.3126 0001352  97.8775 262.2371 15.08833066 99888,6917.902,95.438,540.702,538.831,0.0
53541.0,STARLINK-4485,PAYLOAD,2024-06-09 22:58:55,15.08841497,0.0001373,53.2182,57.0121,87.5997,272.5152,1.5485e-05,-4.1e-07,0.0,0 STARLINK-4485,1 53541U 22101Q   24161.95758316 -.00000041  00000-0  15485-4 0  9995,2 53541  53.2182  57.0121 0001373  87.5997 272.5152 15.08841497100581,6917.876,95.437,540.691,538.791,0.0
53541.0,STARLINK-4485,PAYLOAD,2024-06-10 10:06:37,15.08834493,0.0001448,53.2173,54.9303,82.1139,278.0018,-5.3122e-05,-1.133e-05,0.0,0 STARLINK-4485,1 53541U 22101Q   24162.42126460 -.00001133  00000-0 -53122-4 0  9991,2 53541  53.2173  54.9303 0001448  82.1139 278.0018 15.08834493100659,6917.897,95.438,540.764,538.761,0.0
53541.0,STARLINK-4485,PAYLOAD,2024-06-10 22:49:42,15.08833004,9.75e-05,53.2182,52.5513,91.6543,268.4561,0.00012305,1.671e-05,0.0,0 STARLINK-4485,1 53541U 22101Q   24162.95118889  .00001671  00000-0  12305-3 0  9997,2 53541  53.2182  52.5513 0000975  91.6543 268.4561 15.08833004100736,6917.902,95.438,540.441,539.092,0.0
53541.0,STARLINK-4485,PAYLOAD,2024-06-11 00:25:05,15.08845999,0.0001212,53.2175,52.2554,91.8689,268.2442,8.8177e-05,1.116e-05,0.0,0 STARLINK-4485,1 53541U 22101Q   24163.01742150  .00001116  00000-0  88177-4 0  9994,2 53541  53.2175  52.2554 0001212  91.8689 268.2442 15.08845999100055,6917.862,95.437,540.565,538.889,0.0
53541.0,STARLINK-4485,PAYLOAD,2024-06-11 09:57:23,15.08849004,0.000126,53.2171,50.4717,88.9235,271.1901,0.00016324,2.312e-05,0.0,0 STARLINK-4485,1 53541U 22101Q   24163.41485892  .00002312  00000-0  16324-3 0  9998,2 53541  53.2171  50.4717 0001260  88.9235 271.1901 15.08849004100806,6917.853,95.437,540.59,538.846,0.0
53541.0,STARLINK-4485,PAYLOAD,2024-06-12 01:51:14,15.08856269,0.0001304,53.217,47.495,97.1159,262.9981,0.00033412,5.036e-05,0.0,0 STARLINK-4485,1 53541U 22101Q   24164.07725420  .00005036  00000-0  33412-3 0  9998,2 53541  53.2170  47.4950 0001304  97.1159 262.9981 15.08856269100218,6917.831,95.437,540.598,538.794,0.0
53541.0,STARLINK-4485,PAYLOAD,2024-06-12 09:48:11,15.08841525,0.0001522,53.2178,46.0102,88.0032,272.1134,4.8893e-05,4.9e-06,0.0,0 STARLINK-4485,1 53541U 22101Q   24164.40846205  .00000490  00000-0  48893-4 0  9999,2 53541  53.2178  46.0102 0001522  88.0032 272.1134 15.08841525100268,6917.876,95.437,540.794,538.688,0.0
53541.0,STARLINK-4485,PAYLOAD,2024-06-12 22:31:16,15.08837941,0.000154,53.2182,43.6315,94.6138,265.503,-3.5264e-05,-8.49e-06,0.0,0 STARLINK-4485,1 53541U 22101Q   24164.93838511 -.00000849  00000-0 -35264-4 0  9996,2 53541  53.2182  43.6315 0001540  94.6138 265.5030 15.08837941101036,6917.887,95.438,540.817,538.686,0.0
53541.0,STARLINK-4485,PAYLOAD,2024-06-13 01:42:02,15.08839966,0.000158,53.2185,43.0354,100.2218,259.8953,-1.2783e-07,-2.9e-06,0.0,0 STARLINK-4485,1 53541U 22101Q   24165.07086381 -.00000290  00000-0 -12783-6 0  9995,2 53541  53.2185  43.0354 0001580 100.2218 259.8953 15.08839966101054,6917.88,95.438,540.839,538.652,0.0
53541.0,STARLINK-4485,PAYLOAD,2024-06-13 22:22:03,15.08841372,0.0001704,53.2185,39.1679,110.2889,249.8286,-5.1859e-06,-3.71e-06,0.0,0 STARLINK-4485,1 53541U 22101Q   24165.93198362 -.00000371  00000-0 -51859-5 0  9999,2 53541  53.2185  39.1679 0001704 110.2889 249.8286 15.08841372101189,6917.876,95.437,540.92,538.562,0.0
53541.0,STARLINK-4485,PAYLOAD,2024-06-14 01:32:49,15.08843054,0.0001561,53.2186,38.5746,96.8975,263.2195,9.4627e-06,-1.37e-06,0.0,0 STARLINK-4485,1 53541U 22101Q   24166.06446356 -.00000137  00000-0  94627-5 0  9992,2 53541  53.2186  38.5746 0001561  96.8975 263.2195 15.08843054101205,6917.871,95.437,540.816,538.656,0.0
53541.0,STARLINK-4485,PAYLOAD,2024-06-14 22:12:50,15.08844311,0.0001469,53.2177,34.7083,90.5832,269.5329,0.00021158,3.081e-05,0.0,0 STARLINK-4485,1 53541U 22101Q   24166.92558481  .00003081  00000-0  21158-3 0  9997,2 53541  53.2177  34.7083 0001469  90.5832 269.5329 15.08844311101336,6917.867,95.437,540.748,538.716,0.0
53541.0,STARLINK-4485,PAYLOAD,2024-06-15 07:45:09,15.08843413,0.0001455,53.2176,32.9243,90.0609,270.055,0.0001668,2.368e-05,0.0,0 STARLINK-4485,1 53541U 22101Q   24167.32302488  .00002368  00000-0  16680-3 0  9997,2 53541  53.2176  32.9243 0001455  90.0609 270.0550 15.08843413101396,6917.87,95.437,540.742,538.728,0.0
53541.0,STARLINK-4485,PAYLOAD,2024-06-15 20:28:14,15.08844554,0.000155,53.2184,30.5468,91.4191,268.6979,8.5844e-05,1.079e-05,0.0,0 STARLINK-4485,1 53541U 22101Q   24167.85294392  .00001079  00000-0  85844-4 0  9996,2 53541  53.2184  30.5468 0001550  91.4191 268.6979 15.08844554101479,6917.866,95.437,540.804,538.659,0.0
53541.0,STARLINK-4485,PAYLOAD,2024-06-16 07:35:56,15.08846326,0.0001276,53.2175,28.465,81.3155,278.7981,0.0001032,1.355e-05,0.0,0 STARLINK-4485,1 53541U 22101Q   24168.31662085  .00001355  00000-0  10320-3 0  9999,2 53541  53.2175  28.4650 0001276  81.3155 278.7981 15.08846326101543,6917.861,95.437,540.609,538.843,0.0
53541.0,STARLINK-4485,PAYLOAD,2024-06-16 21:54:25,15.08839864,0.000146,53.2179,25.7896,84.321,275.7948,2.4571e-05,1.03e-06,0.0,0 STARLINK-4485,1 53541U 22101Q   24168.91278941  .00000103  00000-0  24571-4 0  9993,2 53541  53.2179  25.7896 0001460  84.3210 275.7948 15.08839864101638,6917.881,95.438,540.756,538.736,0.0
